CCSDS_OMM_VERS = 2.0
CREATION_DATE  = 
ORIGINATOR     = 

OBJECT_NAME    = KUIPER-00213
OBJECT_ID      = 2026-030P
CENTER_NAME    = EARTH
REF_FRAME      = TEME
TIME_SYSTEM    = UTC
MEAN_ELEMENT_THEORY = SGP/SGP4

EPOCH          = 2026-03-03T16:09:04.590720
MEAN_MOTION    = 15.32480694
ECCENTRICITY   = .0014923
INCLINATION    = 51.8794
RA_OF_ASC_NODE = 248.4825
ARG_OF_PERICENTER = 46.9159
MEAN_ANOMALY   = 313.3072

EPHEMERIS_TYPE = 0
CLASSIFICATION_TYPE = U
NORAD_CAT_ID   = 67777
ELEMENT_SET_NO = 999
REV_AT_EPOCH   = 416
BSTAR          = .10237E-2
MEAN_MOTION_DOT = .32459E-3
MEAN_MOTION_DDOT = 0

CCSDS_OMM_VERS = 2.0
CREATION_DATE  = 
ORIGINATOR     = 

OBJECT_NAME    = KUIPER-00214
OBJECT_ID      = 2026-030Q
CENTER_NAME    = EARTH
REF_FRAME      = TEME
TIME_SYSTEM    = UTC
MEAN_ELEMENT_THEORY = SGP/SGP4

EPOCH          = 2026-03-03T18:16:55.815168
MEAN_MOTION    = 15.36518839
ECCENTRICITY   = .0000878
INCLINATION    = 51.8841
RA_OF_ASC_NODE = 247.5969
ARG_OF_PERICENTER = 203.9464
MEAN_ANOMALY   = 156.1482

EPHEMERIS_TYPE = 0
CLASSIFICATION_TYPE = U
NORAD_CAT_ID   = 67778
ELEMENT_SET_NO = 999
REV_AT_EPOCH   = 418
BSTAR          = .1122E-2
MEAN_MOTION_DOT = .4044E-3
MEAN_MOTION_DDOT = 0

CCSDS_OMM_VERS = 2.0
CREATION_DATE  = 
ORIGINATOR     = 

OBJECT_NAME    = KUIPER-00215
OBJECT_ID      = 2026-030R
CENTER_NAME    = EARTH
REF_FRAME      = TEME
TIME_SYSTEM    = UTC
MEAN_ELEMENT_THEORY = SGP/SGP4

EPOCH          = 2026-03-03T17:23:45.540096
MEAN_MOTION    = 15.34170139
ECCENTRICITY   = .0009895
INCLINATION    = 51.8829
RA_OF_ASC_NODE = 248.0923
ARG_OF_PERICENTER = 43.4112
MEAN_ANOMALY   = 316.7651

EPHEMERIS_TYPE = 0
CLASSIFICATION_TYPE = U
NORAD_CAT_ID   = 67779
ELEMENT_SET_NO = 999
REV_AT_EPOCH   = 417
BSTAR          = .81372E-3
MEAN_MOTION_DOT = .27076E-3
MEAN_MOTION_DDOT = 0

CCSDS_OMM_VERS = 2.0
CREATION_DATE  = 
ORIGINATOR     = 

OBJECT_NAME    = KUIPER-00218
OBJECT_ID      = 2026-030S
CENTER_NAME    = EARTH
REF_FRAME      = TEME
TIME_SYSTEM    = UTC
MEAN_ELEMENT_THEORY = SGP/SGP4

EPOCH          = 2026-03-03T17:11:07.030176
MEAN_MOTION    = 15.34896928
ECCENTRICITY   = .0006455
INCLINATION    = 51.8831
RA_OF_ASC_NODE = 248.0345
ARG_OF_PERICENTER = 34.3591
MEAN_ANOMALY   = 325.7811

EPHEMERIS_TYPE = 0
CLASSIFICATION_TYPE = U
NORAD_CAT_ID   = 67780
ELEMENT_SET_NO = 999
REV_AT_EPOCH   = 417
BSTAR          = .11818E-2
MEAN_MOTION_DOT = .40465E-3
MEAN_MOTION_DDOT = 0

CCSDS_OMM_VERS = 2.0
CREATION_DATE  = 
ORIGINATOR     = 

OBJECT_NAME    = KUIPER-00220
OBJECT_ID      = 2026-030T
CENTER_NAME    = EARTH
REF_FRAME      = TEME
TIME_SYSTEM    = UTC
MEAN_ELEMENT_THEORY = SGP/SGP4

EPOCH          = 2026-03-03T17:19:14.448000
MEAN_MOTION    = 15.34474365
ECCENTRICITY   = .0008237
INCLINATION    = 51.8802
RA_OF_ASC_NODE = 248.0653
ARG_OF_PERICENTER = 39.3791
MEAN_ANOMALY   = 320.7792

EPHEMERIS_TYPE = 0
CLASSIFICATION_TYPE = U
NORAD_CAT_ID   = 67781
ELEMENT_SET_NO = 999
REV_AT_EPOCH   = 417
BSTAR          = .11665E-2
MEAN_MOTION_DOT = .39409E-3
MEAN_MOTION_DDOT = 0

CCSDS_OMM_VERS = 2.0
CREATION_DATE  = 
ORIGINATOR     = 

OBJECT_NAME    = KUIPER-00222
OBJECT_ID      = 2026-030U
CENTER_NAME    = EARTH
REF_FRAME      = TEME
TIME_SYSTEM    = UTC
MEAN_ELEMENT_THEORY = SGP/SGP4

EPOCH          = 2026-03-03T17:47:56.266080
MEAN_MOTION    = 15.32313095
ECCENTRICITY   = .0017603
INCLINATION    = 51.8794
RA_OF_ASC_NODE = 248.1907
ARG_OF_PERICENTER = 41.4142
MEAN_ANOMALY   = 318.8173

EPHEMERIS_TYPE = 0
CLASSIFICATION_TYPE = U
NORAD_CAT_ID   = 67782
ELEMENT_SET_NO = 999
REV_AT_EPOCH   = 417
BSTAR          = .22794E-2
MEAN_MOTION_DOT = .72834E-3
MEAN_MOTION_DDOT = 0

CCSDS_OMM_VERS = 2.0
CREATION_DATE  = 
ORIGINATOR     = 

OBJECT_NAME    = KUIPER-00223
OBJECT_ID      = 2026-030V
CENTER_NAME    = EARTH
REF_FRAME      = TEME
TIME_SYSTEM    = UTC
MEAN_ELEMENT_THEORY = SGP/SGP4

EPOCH          = 2026-03-03T17:28:11.518176
MEAN_MOTION    = 15.33963691
ECCENTRICITY   = .0012153
INCLINATION    = 51.8814
RA_OF_ASC_NODE = 248.1088
ARG_OF_PERICENTER = 43.6155
MEAN_ANOMALY   = 316.5789

EPHEMERIS_TYPE = 0
CLASSIFICATION_TYPE = U
NORAD_CAT_ID   = 67783
ELEMENT_SET_NO = 999
REV_AT_EPOCH   = 417
BSTAR          = .82604E-3
MEAN_MOTION_DOT = .27332E-3
MEAN_MOTION_DDOT = 0

CCSDS_OMM_VERS = 2.0
CREATION_DATE  = 
ORIGINATOR     = 

OBJECT_NAME    = KUIPER-00225
OBJECT_ID      = 2026-030W
CENTER_NAME    = EARTH
REF_FRAME      = TEME
TIME_SYSTEM    = UTC
MEAN_ELEMENT_THEORY = SGP/SGP4

EPOCH          = 2026-03-03T16:59:22.483104
MEAN_MOTION    = 15.35609462
ECCENTRICITY   = .0003885
INCLINATION    = 51.8806
RA_OF_ASC_NODE = 247.9761
ARG_OF_PERICENTER = 24.1858
MEAN_ANOMALY   = 335.9310

EPHEMERIS_TYPE = 0
CLASSIFICATION_TYPE = U
NORAD_CAT_ID   = 67784
ELEMENT_SET_NO = 999
REV_AT_EPOCH   = 417
BSTAR          = .82403E-3
MEAN_MOTION_DOT = .28696E-3
MEAN_MOTION_DDOT = 0

CCSDS_OMM_VERS = 2.0
CREATION_DATE  = 
ORIGINATOR     = 

OBJECT_NAME    = KUIPER-00226
OBJECT_ID      = 2026-030X
CENTER_NAME    = EARTH
REF_FRAME      = TEME
TIME_SYSTEM    = UTC
MEAN_ELEMENT_THEORY = SGP/SGP4

EPOCH          = 2026-03-03T18:02:27.265344
MEAN_MOTION    = 15.31333072
ECCENTRICITY   = .00195
INCLINATION    = 51.8808
RA_OF_ASC_NODE = 248.2558
ARG_OF_PERICENTER = 55.7907
MEAN_ANOMALY   = 304.4922

EPHEMERIS_TYPE = 0
CLASSIFICATION_TYPE = U
NORAD_CAT_ID   = 67785
ELEMENT_SET_NO = 999
REV_AT_EPOCH   = 417
BSTAR          = .70422E-4
MEAN_MOTION_DOT = .1798E-4
MEAN_MOTION_DDOT = 0

CCSDS_OMM_VERS = 2.0
CREATION_DATE  = 
ORIGINATOR     = 

OBJECT_NAME    = KUIPER-00259
OBJECT_ID      = 2026-030Y
CENTER_NAME    = EARTH
REF_FRAME      = TEME
TIME_SYSTEM    = UTC
MEAN_ELEMENT_THEORY = SGP/SGP4

EPOCH          = 2026-03-03T18:47:39.071904
MEAN_MOTION    = 15.34798254
ECCENTRICITY   = .0008118
INCLINATION    = 51.8805
RA_OF_ASC_NODE = 247.7273
ARG_OF_PERICENTER = 32.9113
MEAN_ANOMALY   = 327.2376

EPHEMERIS_TYPE = 0
CLASSIFICATION_TYPE = U
NORAD_CAT_ID   = 67786
ELEMENT_SET_NO = 999
REV_AT_EPOCH   = 418
BSTAR          = .11085E-2
MEAN_MOTION_DOT = .37811E-3
MEAN_MOTION_DDOT = 0

CCSDS_OMM_VERS = 2.0
CREATION_DATE  = 
ORIGINATOR     = 

OBJECT_NAME    = KUIPER-00260
OBJECT_ID      = 2026-030Z
CENTER_NAME    = EARTH
REF_FRAME      = TEME
TIME_SYSTEM    = UTC
MEAN_ELEMENT_THEORY = SGP/SGP4

EPOCH          = 2026-03-03T16:49:13.947168
MEAN_MOTION    = 15.36174803
ECCENTRICITY   = .0000882
INCLINATION    = 51.8794
RA_OF_ASC_NODE = 247.9291
ARG_OF_PERICENTER = 68.9976
MEAN_ANOMALY   = 291.1104

EPHEMERIS_TYPE = 0
CLASSIFICATION_TYPE = U
NORAD_CAT_ID   = 67787
ELEMENT_SET_NO = 999
REV_AT_EPOCH   = 408
BSTAR          = .10606E-2
MEAN_MOTION_DOT = .37768E-3
MEAN_MOTION_DDOT = 0

CCSDS_OMM_VERS = 2.0
CREATION_DATE  = 
ORIGINATOR     = 

OBJECT_NAME    = KUIPER-00262
OBJECT_ID      = 2026-030AA
CENTER_NAME    = EARTH
REF_FRAME      = TEME
TIME_SYSTEM    = UTC
MEAN_ELEMENT_THEORY = SGP/SGP4

EPOCH          = 2026-03-03T16:44:40.053120
MEAN_MOTION    = 15.36481139
ECCENTRICITY   = .0000608
INCLINATION    = 51.8807
RA_OF_ASC_NODE = 247.9114
ARG_OF_PERICENTER = 148.8745
MEAN_ANOMALY   = 211.2278

EPHEMERIS_TYPE = 0
CLASSIFICATION_TYPE = U
NORAD_CAT_ID   = 67788
ELEMENT_SET_NO = 999
REV_AT_EPOCH   = 417
BSTAR          = .85475E-3
MEAN_MOTION_DOT = .30637E-3
MEAN_MOTION_DDOT = 0

